GOES 9                  
1 23581U 95025A   08267.63650490 -.00000072  00000-0  10000-3 0  7606
2 23581   4.6348  73.8880 0000818 308.5784  51.6703  0.98801560 48799
SARSAT 7 (NOAA 15)      
1 25338U 98030A   08269.01279578  .00000139  00000-0  78091-4 0  6354
2 25338  98.5645 258.3759 0011624 108.7968 251.4510 14.24725945539011
GOES 11                 
1 26352U 00022A   08269.65211801  .00000068  00000-0  10000-3 0  9911
2 26352   0.2331 261.6421 0006653 320.7178 241.7595  1.00273987 30754
COSPAS 9 (NADEZHDA 6)   
1 26384U 00033A   08269.51974163  .00000010  00000-0  11538-4 0  4280
2 26384  98.4212 288.6564 0015565 325.0172  35.0021 14.64070838440226
SARSAT 8 (NOAA 16)      
1 26536U 00055A   08269.01502569  .00000100  00000-0  79542-4 0  1090
2 26536  99.1660 260.4226 0009804 308.6671  51.3602 14.12498245412867
GOES 12                 
1 26871U 01031A   08268.28914829 -.00000271  00000-0  10000-3 0  7359
2 26871   0.2372  88.2698 0003523  35.1955 269.4816  1.00273952 26342
SARSAT 9 (NOAA 17)      
1 27453U 02032A   08269.39079999  .00000014  00000-0  24640-4 0  1063
2 27453  98.5233 331.0651 0012118 171.6286 188.5082 14.24004376325065
INSAT 3A                
1 27714U 03013A   08268.93391730 -.00000279  00000-0  10000-3 0  2735
2 27714   0.0210 130.3050 0003010 351.6627 311.8612  1.00270144 20049
SARSAT 10 (NOAA 18)     
1 28654U 05018A   08269.37913903  .00000217  00000-0  14450-3 0  5947
2 28654  98.8738 209.1034 0015052  33.4328 326.7778 14.11196411172600
MSG-2                   
1 28912U 05049B   08265.93722951 -.00000014  00000-0  10000-3 0  4141
2 28912   0.3379 209.1356 0001654  87.9769  41.8715  1.00262573 10153
SARSAT 11 (METOP-A)     
1 29499U 06044A   08268.88708486 -.00000128  00000-0 -38365-4 0  6067
2 29499  98.7126 326.7338 0001003 108.4176 251.7078 14.21485569100322
